{
"type": "FeatureCollection",
"crs": { "type": "name", "properties": { "name": "urn:ogc:def:crs:OGC:1.3:CRS84" } },
"features": [
{ "type": "Feature", "properties": { "NAME_HE": "קרית ספיר נתניה", "NAME_ENG": null, "CODE": "" }, "geometry": { "type": "Point", "coordinates": [ 34.866196558350559, 32.281529348443144 ] } },
{ "type": "Feature", "properties": { "NAME_HE": "יבנה מערב", "NAME_ENG": null }, "geometry": { "type": "Point", "coordinates": [ 34.731472421554209, 31.891170400813063 ] } },
{ "type": "Feature", "properties": { "NAME_HE": "חדרה מערב", "NAME_ENG": null }, "geometry": { "type": "Point", "coordinates": [ 34.899297342860379, 32.438154961751216 ] } },
{ "type": "Feature", "properties": { "NAME_HE": "אשקלון", "NAME_ENG": null }, "geometry": { "type": "Point", "coordinates": [ 34.604783782781197, 31.676673868375136 ] } },
{ "type": "Feature", "properties": { "NAME_HE": "בנימינה", "NAME_ENG": null }, "geometry": { "type": "Point", "coordinates": [ 34.949923098686625, 32.514418080871295 ] } },
{ "type": "Feature", "properties": { "NAME_HE": "באר שבע מרכז", "NAME_ENG": null }, "geometry": { "type": "Point", "coordinates": [ 34.798326769370746, 31.243221610414363 ] } },
{ "type": "Feature", "properties": { "NAME_HE": "באר שבע אוניברסיטה", "NAME_ENG": null }, "geometry": { "type": "Point", "coordinates": [ 34.809215228030531, 31.261958126783547 ] } },
{ "type": "Feature", "properties": { "NAME_HE": "חיפה בת גלים", "NAME_ENG": null }, "geometry": { "type": "Point", "coordinates": [ 34.981801934166654, 32.830542818307563 ] } },
{ "type": "Feature", "properties": { "NAME_HE": "חיפה מרכז השמונה", "NAME_ENG": null }, "geometry": { "type": "Point", "coordinates": [ 34.997034552537258, 32.822161816496525 ] } },
{ "type": "Feature", "properties": { "NAME_HE": "לוד", "NAME_ENG": null }, "geometry": { "type": "Point", "coordinates": [ 34.87508997091323, 31.945202370695508 ] } },
{ "type": "Feature", "properties": { "NAME_HE": "נתניה", "NAME_ENG": null }, "geometry": { "type": "Point", "coordinates": [ 34.869175273169844, 32.319965989829235 ] } },
{ "type": "Feature", "properties": { "NAME_HE": "ירושלים מלחה", "NAME_ENG": null }, "geometry": { "type": "Point", "coordinates": [ 35.188092113346748, 31.747748063968661 ] } },
{ "type": "Feature", "properties": {"name": [{"en": "Tel Aviv HaShalom"}, {"he": "תל אביב - השלום"}]}, "geometry": { "type": "Point", "coordinates": [ 34.793143542117726, 32.073450146268385 ] } },
{ "type": "Feature", "properties": { "NAME_HE": "תל אביב - ההגנה", "NAME_ENG": null }, "geometry": { "type": "Point", "coordinates": [ 34.78474866323679, 32.054079650422189 ] } },
{ "type": "Feature", "properties": { "NAME_HE": "תל אביב - אוניברסיטה", "NAME_ENG": null }, "geometry": { "type": "Point", "coordinates": [ 34.804545127935725, 32.103595508434111 ] } },
{ "type": "Feature", "properties": { "NAME_HE": "הרצליה", "NAME_ENG": null }, "geometry": { "type": "Point", "coordinates": [ 34.818380093972102, 32.163738257776906 ] } },
{ "type": "Feature", "properties": { "NAME_HE": "בית יהושוע", "NAME_ENG": null }, "geometry": { "type": "Point", "coordinates": [ 34.860047591684918, 32.262423134394076 ] } },
{ "type": "Feature", "properties": {"name": [{"en": "Bnei Brak"}, {"he": "בני ברק"}]}, "geometry": { "type": "Point", "coordinates": [ 34.830075651785052, 32.103033175766967 ] } },
{ "type": "Feature", "properties": { "NAME_HE": "עכו", "NAME_ENG": null }, "geometry": { "type": "Point", "coordinates": [ 35.082891394824856, 32.92822598566903 ] } },
{ "type": "Feature", "properties": { "NAME_HE": "נהריה", "NAME_ENG": null }, "geometry": { "type": "Point", "coordinates": [ 35.098653962711914, 33.004949103807256 ] } },
{ "type": "Feature", "properties": { "NAME_HE": "קיסריה פרדס חנה", "NAME_ENG": null }, "geometry": { "type": "Point", "coordinates": [ 34.953992483875055, 32.485300134485733 ] } },
{ "type": "Feature", "properties": { "NAME_HE": "ראש העין צפון", "NAME_ENG": null }, "geometry": { "type": "Point", "coordinates": [ 34.934719003129082, 32.120748196239532 ] } },
{ "type": "Feature", "properties": { "NAME_HE": "פאתי מודיעין", "NAME_ENG": "Paatei Modiin", "CODE": "ModiinP" }, "geometry": { "type": "Point", "coordinates": [ 34.960721985217276, 31.893596301094089 ] } },
{ "type": "Feature", "properties": { "NAME_HE": "אופקים", "NAME_ENG": null }, "geometry": { "type": "Point", "coordinates": [ 34.634121600394081, 31.321227379601595 ] } },
{ "type": "Feature", "properties": { "NAME_HE": "שדרות", "NAME_ENG": null }, "geometry": { "type": "Point", "coordinates": [ 34.58611730985676, 31.515843635513175 ] } },
{ "type": "Feature", "properties": { "NAME_HE": "נתיבות", "NAME_ENG": null }, "geometry": { "type": "Point", "coordinates": [ 34.571622703652224, 31.411329061018936 ] } },
{ "type": "Feature", "properties": { "NAME_HE": "אשדוד עד הלום", "NAME_ENG": null }, "geometry": { "type": "Point", "coordinates": [ 34.6660040348427, 31.773949152058439 ] } },
{ "type": "Feature", "properties": { "NAME_HE": "כפר סבא נורדאו", "NAME_ENG": null }, "geometry": { "type": "Point", "coordinates": [ 34.917308332736603, 32.167410265340983 ] } },
{ "type": "Feature", "properties": { "NAME_HE": "רחובות", "NAME_ENG": null }, "geometry": { "type": "Point", "coordinates": [ 34.806336418851615, 31.908582962184759 ] } },
{ "type": "Feature", "properties": { "NAME_HE": "עתלית", "NAME_ENG": null }, "geometry": { "type": "Point", "coordinates": [ 34.940371510710463, 32.692828056663707 ] } },
{ "type": "Feature", "properties": { "NAME_HE": "רמלה", "NAME_ENG": null }, "geometry": { "type": "Point", "coordinates": [ 34.877188698427986, 31.928772246219502 ] } },
{ "type": "Feature", "properties": { "NAME_HE": "דימונה", "NAME_ENG": null }, "geometry": { "type": "Point", "coordinates": [ 35.011418397212587, 31.069209310371875 ] } },
{ "type": "Feature", "properties": { "NAME_HE": "חיפה חוף הכרמל", "NAME_ENG": null }, "geometry": { "type": "Point", "coordinates": [ 34.95746329416847, 32.793472075160508 ] } },
{ "type": "Feature", "properties": { "NAME_HE": "בית שמש", "NAME_ENG": null }, "geometry": { "type": "Point", "coordinates": [ 34.989449761467739, 31.757742754459908 ] } },
{ "type": "Feature", "properties": { "NAME_HE": "מרכזית המפרץ קו החוף (לב המפרץ)", "NAME_ENG": null }, "geometry": { "type": "Point", "coordinates": [ 35.037083639468911, 32.793824621148595 ] } },
{ "type": "Feature", "properties": { "NAME_HE": "חוצות המפרץ", "NAME_ENG": null }, "geometry": { "type": "Point", "coordinates": [ 35.054456608503742, 32.809372302915307 ] } },
{ "type": "Feature", "properties": { "NAME_HE": "כפר חב\"ד", "NAME_ENG": null }, "geometry": { "type": "Point", "coordinates": [ 34.852947086260627, 31.99312721430401 ] } },
{ "type": "Feature", "properties": { "NAME_HE": "פתח תקווה סגולה", "NAME_ENG": null }, "geometry": { "type": "Point", "coordinates": [ 34.901228750322055, 32.111998868237926 ] } },
{ "type": "Feature", "properties": { "NAME_HE": "בת ים יוספטל", "NAME_ENG": null }, "geometry": { "type": "Point", "coordinates": [ 34.762048465154272, 32.014525720398872 ] } },
{ "type": "Feature", "properties": { "NAME_HE": "חולון וולפסון", "NAME_ENG": null }, "geometry": { "type": "Point", "coordinates": [ 34.759638140567226, 32.035346629878724 ] } },
{ "type": "Feature", "properties": { "NAME_HE": "שער צומת חולון", "NAME_ENG": null }, "geometry": { "type": "Point", "coordinates": [ 34.776410990393607, 32.037046588925612 ] } },
{ "type": "Feature", "properties": { "NAME_HE": "בת ים קוממיות", "NAME_ENG": null }, "geometry": { "type": "Point", "coordinates": [ 34.759419433392019, 32.000868659854568 ] } },
{ "type": "Feature", "properties": { "NAME_HE": "ראשון לציון הראשונים", "NAME_ENG": null }, "geometry": { "type": "Point", "coordinates": [ 34.802608786965976, 31.948881678224303 ] } },
{ "type": "Feature", "properties": { "NAME_HE": "קרית מלאכי יואב", "NAME_ENG": null }, "geometry": { "type": "Point", "coordinates": [ 34.822552318129432, 31.74713734676585 ] } },
{ "type": "Feature", "properties": { "NAME_HE": "קרית גת", "NAME_ENG": null }, "geometry": { "type": "Point", "coordinates": [ 34.777850480554719, 31.603416783379082 ] } },
{ "type": "Feature", "properties": { "NAME_HE": "באר יעקב", "NAME_ENG": null }, "geometry": { "type": "Point", "coordinates": [ 34.828548600875664, 31.932847970939005 ] } },
{ "type": "Feature", "properties": { "NAME_HE": "יבנה מזרח", "NAME_ENG": null }, "geometry": { "type": "Point", "coordinates": [ 34.744027001022822, 31.861794789223968 ] } },
{ "type": "Feature", "properties": { "NAME_HE": "הוד השרון סוקולוב", "NAME_ENG": null }, "geometry": { "type": "Point", "coordinates": [ 34.901486188379629, 32.17020467138812 ] } },
{ "type": "Feature", "properties": { "NAME_HE": "תל אביב - סבידור מרכז", "NAME_ENG": null }, "geometry": { "type": "Point", "coordinates": [ 34.798254884853591, 32.083817067627365 ] } },
{ "type": "Feature", "properties": { "NAME_HE": "פתח תקווה קרית אריה", "NAME_ENG": null }, "geometry": { "type": "Point", "coordinates": [ 34.863104519528648, 32.106135115350483 ] } },
{ "type": "Feature", "properties": { "NAME_HE": "נתב\"ג", "NAME_ENG": null }, "geometry": { "type": "Point", "coordinates": [ 34.870660456560799, 32.000668243694442 ] } },
{ "type": "Feature", "properties": { "NAME_HE": "ירושלים גן חיות התנ''כי", "NAME_ENG": null }, "geometry": { "type": "Point", "coordinates": [ 35.178063591260631, 31.744887762881508 ] } },
{ "type": "Feature", "properties": { "NAME_HE": "להבים רהט", "NAME_ENG": null }, "geometry": { "type": "Point", "coordinates": [ 34.798209327674364, 31.369801009035083 ] } },
{ "type": "Feature", "properties": { "NAME_HE": "ראשון לציון משה דיין", "NAME_ENG": null }, "geometry": { "type": "Point", "coordinates": [ 34.757382347938162, 31.987863644807799 ] } },
{ "type": "Feature", "properties": { "NAME_HE": "כרמיאל", "NAME_ENG": null }, "geometry": { "type": "Point", "coordinates": [ 35.294674266108686, 32.924504737735127 ] } },
{ "type": "Feature", "properties": { "NAME_HE": "אחיהוד", "NAME_ENG": null }, "geometry": { "type": "Point", "coordinates": [ 35.173974961238144, 32.911471918815394 ] } },
{ "type": "Feature", "properties": { "NAME_HE": "רעננה מערב", "NAME_ENG": null }, "geometry": { "type": "Point", "coordinates": [ 34.850803866850065, 32.180002068868951 ] } },
{ "type": "Feature", "properties": { "NAME_HE": "רעננה דרום", "NAME_ENG": null }, "geometry": { "type": "Point", "coordinates": [ 34.886188315924002, 32.172608970517985 ] } },
{ "type": "Feature", "properties": { "NAME_HE": "מזכרת בתיה", "NAME_ENG": null }, "geometry": { "type": "Point", "coordinates": [ 34.856043003308663, 31.842172025177092 ] } },
{ "type": "Feature", "properties": { "NAME_HE": "לוד גני אביב", "NAME_ENG": null }, "geometry": { "type": "Point", "coordinates": [ 34.878650564423339, 31.966942846538842 ] } },
{ "type": "Feature", "properties": { "NAME_HE": "מודיעין מרכז", "NAME_ENG": "Modiin - Center", "CODE": "ModiinC"}, "geometry": { "type": "Point", "coordinates": [ 35.005675570627552, 31.901127002654444 ] } },
{ "type": "Feature", "properties": { "NAME_HE": "ירושלים יצחק נבון", "NAME_ENG": "Jerusalem - Yitzchak Navon", "CODE": "JerusalemN"}, "geometry": { "type": "Point", "coordinates": [ 35.202633412885689, 31.788450158322984 ] } },
{ "type": "Feature", "properties": { "NAME_HE": "קריית חיים", "NAME_ENG": null }, "geometry": { "type": "Point", "coordinates": [ 35.064228335087755, 32.824806423425166 ] } },
{ "type": "Feature", "properties": { "NAME_HE": "קרית מוצקין", "NAME_ENG": null }, "geometry": { "type": "Point", "coordinates": [ 35.069616072863589, 32.832718266344258 ] } },
{ "type": "Feature", "properties": { "NAME_HE": "מרכזית המפרץ קו העמק (לב המפרץ מזרח)", "NAME_ENG": null }, "geometry": { "type": "Point", "coordinates": [ 35.033657528598873, 32.792497134014873 ] } },
{ "type": "Feature", "properties": { "NAME_HE": "עפולה צפון", "NAME_ENG": null }, "geometry": { "type": "Point", "coordinates": [ 35.294538736843073, 32.62145169508792 ] } },
{ "type": "Feature", "properties": { "NAME_HE": "מגדל העמק כפר ברוך", "NAME_ENG": null }, "geometry": { "type": "Point", "coordinates": [ 35.208657637474452, 32.647884516661108 ] } },
{ "type": "Feature", "properties": { "NAME_HE": "בית שאן", "NAME_ENG": null }, "geometry": { "type": "Point", "coordinates": [ 35.490866042330957, 32.514303966592173 ] } },
{ "type": "Feature", "properties": { "NAME_HE": "יקנעם כפר יהושוע", "NAME_ENG": null }, "geometry": { "type": "Point", "coordinates": [ 35.123113711003583, 32.682142277496233 ] } },
{ "type": "Feature", "properties": { "NAME_HE": "אילת", "NAME_ENG": null }, "geometry": { "type": "Point", "coordinates": [ 34.940114746070954, 29.533858353626044 ] } },
{ "type": "Feature", "properties": { "NAME_HE": "אשלים", "NAME_ENG": null }, "geometry": { "type": "Point", "coordinates": [ 34.705382389070152, 30.957482478735958 ] } },
{ "type": "Feature", "properties": { "NAME_HE": "אחיטוב", "NAME_ENG": null }, "geometry": { "type": "Point", "coordinates": [ 35.003046520764165, 32.381497794806371 ] } },
{ "type": "Feature", "properties": { "NAME_HE": "מרכז ספיר", "NAME_ENG": null }, "geometry": { "type": "Point", "coordinates": [ 35.192554455504293, 30.60832642222373 ] } },
{ "type": "Feature", "properties": { "NAME_HE": "ראש העין דרום", "NAME_ENG": null }, "geometry": { "type": "Point", "coordinates": [ 34.934279276658394, 32.104834661385581 ] } },
{ "type": "Feature", "properties": { "NAME_HE": "משאבי שדה", "NAME_ENG": null }, "geometry": { "type": "Point", "coordinates": [ 34.786198774990666, 31.011808529516209 ] } },
{ "type": "Feature", "properties": { "NAME_HE": "גלילות דרום", "NAME_ENG": null }, "geometry": { "type": "Point", "coordinates": [ 34.810093207116289, 32.132016394585641 ] } },
{ "type": "Feature", "properties": { "NAME_HE": "לוד צפון", "NAME_ENG": null }, "geometry": { "type": "Point", "coordinates": [ 34.897765801018387, 31.962501775121265 ] } },
{ "type": "Feature", "properties": { "NAME_HE": "שפיים", "NAME_ENG": null }, "geometry": { "type": "Point", "coordinates": [ 34.839376270472982, 32.215696657890462 ] } },
{ "type": "Feature", "properties": { "NAME_HE": "ערערה", "NAME_ENG": null }, "geometry": { "type": "Point", "coordinates": [ 35.09773720916894, 32.505759175031613 ] } },
{ "type": "Feature", "properties": { "NAME_HE": "עין יהב", "NAME_ENG": null }, "geometry": { "type": "Point", "coordinates": [ 35.212382233442753, 30.648212228131104 ] } },
{ "type": "Feature", "properties": { "NAME_HE": "סדום", "NAME_ENG": null }, "geometry": { "type": "Point", "coordinates": [ 35.363033634383896, 31.036529678558569 ] } },
{ "type": "Feature", "properties": { "NAME_HE": "פארן", "NAME_ENG": null }, "geometry": { "type": "Point", "coordinates": [ 35.182022065249747, 30.364301879565225 ] } },
{ "type": "Feature", "properties": { "NAME_HE": "טייבה (שער אפריים)", "NAME_ENG": null }, "geometry": { "type": "Point", "coordinates": [ 34.99629910620542, 32.276483469447932 ] } },
{ "type": "Feature", "properties": { "NAME_HE": "טירה", "NAME_ENG": null }, "geometry": { "type": "Point", "coordinates": [ 34.976797109543533, 32.229885574019391 ] } },
{ "type": "Feature", "properties": { "NAME_HE": "העמקים", "NAME_ENG": null }, "geometry": { "type": "Point", "coordinates": [ 35.094988509007287, 32.725086470873393 ] } },
{ "type": "Feature", "properties": { "NAME_HE": "אשדוד נמל היובל", "NAME_ENG": null }, "geometry": { "type": "Point", "coordinates": [ 34.648629994220869, 31.823213149357635 ] } },
{ "type": "Feature", "properties": { "NAME_HE": "חדרה מזרח", "NAME_ENG": null }, "geometry": { "type": "Point", "coordinates": [ 34.950377263292552, 32.443412659088175 ] } },
{ "type": "Feature", "properties": { "NAME_HE": "גזר דרום", "NAME_ENG": null }, "geometry": { "type": "Point", "coordinates": [ 34.913460284850657, 31.902217661678488 ] } },
{ "type": "Feature", "properties": { "NAME_HE": "תעופה", "NAME_ENG": null }, "geometry": { "type": "Point", "coordinates": [ 34.907958502636241, 31.995274519499635 ] } },
{ "type": "Feature", "properties": { "NAME_HE": "יהל", "NAME_ENG": null }, "geometry": { "type": "Point", "coordinates": [ 35.13784648488442, 30.078772343990206 ] } },
{ "type": "Feature", "properties": { "NAME_HE": "יד מרדכי", "NAME_ENG": null }, "geometry": { "type": "Point", "coordinates": [ 34.572019288841581, 31.597176653715362 ] } },
{ "type": "Feature", "properties": { "NAME_HE": "אלעד", "NAME_ENG": null }, "geometry": { "type": "Point", "coordinates": [ 34.933178909816675, 32.064283370062135 ] } },
{ "type": "Feature", "properties": { "NAME_HE": "נשר", "NAME_ENG": null }, "geometry": { "type": "Point", "coordinates": [ 35.045331652220469, 32.776506765311751 ] } },
{ "type": "Feature", "properties": { "NAME_HE": "יוטבתה", "NAME_ENG": null }, "geometry": { "type": "Point", "coordinates": [ 35.065063706498691, 29.892497581223214 ] } },
{ "type": "Feature", "properties": { "NAME_HE": "חריש", "NAME_ENG": null }, "geometry": { "type": "Point", "coordinates": [ 35.03341926436876, 32.471960661904795 ] } },
{ "type": "Feature", "properties": { "NAME_HE": "תמנע", "NAME_ENG": null }, "geometry": { "type": "Point", "coordinates": [ 35.013300375539856, 29.759346677930729 ] } },
{ "type": "Feature", "properties": { "NAME_HE": "גזר צפון", "NAME_ENG": null }, "geometry": { "type": "Point", "coordinates": [ 34.913671284747572, 31.903738662246663 ] } },
{ "type": "Feature", "properties": { "NAME_HE": "כפר סבא צפון", "NAME_ENG": null }, "geometry": { "type": "Point", "coordinates": [ 34.954956405966477, 32.193172360165597 ] } },
{ "type": "Feature", "properties": { "NAME_HE": "תל יוסף", "NAME_ENG": null }, "geometry": { "type": "Point", "coordinates": [ 35.389361637534897, 32.549707666138517 ] } },
{ "type": "Feature", "properties": { "NAME_HE": "ניצנה", "NAME_ENG": null }, "geometry": { "type": "Point", "coordinates": [ 34.421852963108492, 30.886868347672412 ] } },
{ "type": "Feature", "properties": { "NAME_HE": "טירת הכרמל", "NAME_ENG": null }, "geometry": { "type": "Point", "coordinates": [ 34.967863667034429, 32.757417740810304 ] } },
{ "type": "Feature", "properties": { "NAME_HE": "נהר הירדן", "NAME_ENG": null }, "geometry": { "type": "Point", "coordinates": [ 35.573928339594744, 32.496980489152961 ] } },
{ "type": "Feature", "properties": { "NAME_HE": "רחובות גבירול", "NAME_ENG": null }, "geometry": { "type": "Point", "coordinates": [ 34.794876874731713, 31.899373765327219 ] } },
{ "type": "Feature", "properties": { "NAME_HE": "ירושלים מרכז", "NAME_ENG": "Jerusalem - Center", "CODE": "JerusalemC" }, "geometry": { "type": "Point", "coordinates": [ 35.216939591849126, 31.782797826822236 ] } },
{ "type": "Feature", "properties": { "NAME_HE": "קרית אתא", "NAME_ENG": null }, "geometry": { "type": "Point", "coordinates": [ 35.10535444620173, 32.816957744192287 ] } },
{ "type": "Feature", "properties": { "NAME_HE": "כפר מנחם", "NAME_ENG": null }, "geometry": { "type": "Point", "coordinates": [ 34.820610700443964, 31.732114117826651 ] } },
{ "type": "Feature", "properties": { "NAME_HE": "נשר", "NAME_ENG": null }, "geometry": { "type": "Point", "coordinates": [ 35.050383581241022, 32.772093850016752 ] } },
{ "type": "Feature", "properties": { "NAME_HE": "רמלה מזרח", "NAME_ENG": null }, "geometry": { "type": "Point", "coordinates": [ 34.884453626296128, 31.917141688390483 ] } },
{ "type": "Feature", "properties": { "NAME_HE": "זכרון יעקב", "NAME_ENG": null }, "geometry": { "type": "Point", "coordinates": [ 34.931025186257621, 32.573209835024301 ] } },
{ "type": "Feature", "properties": { "NAME_HE": "אור עקיבא", "NAME_ENG": null }, "geometry": { "type": "Point", "coordinates": [ 34.915939855942511, 32.534300375254247 ] } },
{ "type": "Feature", "properties": { "NAME_HE": "נתניה מכללה", "NAME_ENG": null }, "geometry": { "type": "Point", "coordinates": [ 34.866770880922267, 32.29174589835754 ] } },
{ "type": "Feature", "properties": { "NAME_HE": "מרכז ספיר", "NAME_ENG": null }, "geometry": { "type": "Point", "coordinates": [ 35.208982773319647, 30.6745702555341 ] } },
{ "type": "Feature", "properties": { "NAME_HE": "פארן", "NAME_ENG": null }, "geometry": { "type": "Point", "coordinates": [ 35.182381566829832, 30.360904990700671 ] } },
{ "type": "Feature", "properties": { "NAME_HE": "(נען)", "NAME_ENG": null }, "geometry": { "type": "Point", "coordinates": [ 34.872073637447208, 31.874897785070029 ] } },
{ "type": "Feature", "properties": { "NAME_HE": "טמרה", "NAME_ENG": null }, "geometry": { "type": "Point", "coordinates": [ 35.1540943347443, 32.875274614513557 ] } },
{ "type": "Feature", "properties": { "NAME_HE": "שפרעם", "NAME_ENG": null }, "geometry": { "type": "Point", "coordinates": [ 35.149477329275982, 32.82968070566379 ] } },
{ "type": "Feature", "properties": { "NAME_HE": "יטבתה", "NAME_ENG": null }, "geometry": { "type": "Point", "coordinates": [ 35.065827458991023, 29.897374165528465 ] } },
{ "type": "Feature", "properties": { "NAME_HE": "קרית שמונה", "NAME_ENG": null }, "geometry": { "type": "Point", "coordinates": [ 35.582485297588235, 33.210528856516234 ] } },
{ "type": "Feature", "properties": { "NAME_HE": "כספיה", "NAME_ENG": null }, "geometry": { "type": "Point", "coordinates": [ 35.111189521685716, 31.244626041938261 ] } },
{ "type": "Feature", "properties": { "NAME_HE": "יהל", "NAME_ENG": null }, "geometry": { "type": "Point", "coordinates": [ 35.139348425330446, 30.082510670561987 ] } },
{ "type": "Feature", "properties": { "NAME_HE": "ערד", "NAME_ENG": null }, "geometry": { "type": "Point", "coordinates": [ 35.206610251013345, 31.252146972726191 ] } },
{ "type": "Feature", "properties": { "NAME_HE": "טבריה", "NAME_ENG": null }, "geometry": { "type": "Point", "coordinates": [ 35.500951347634704, 32.785923685446171 ] } },
{ "type": "Feature", "properties": { "NAME_HE": "טירה", "NAME_ENG": null }, "geometry": { "type": "Point", "coordinates": [ 34.976796535194893, 32.230576986265 ] } },
{ "type": "Feature", "properties": { "NAME_HE": "כפר סבא צפון", "NAME_ENG": null }, "geometry": { "type": "Point", "coordinates": [ 34.953755572042489, 32.175669109990025 ] } },
{ "type": "Feature", "properties": { "NAME_HE": "בית המכס", "NAME_ENG": null }, "geometry": { "type": "Point", "coordinates": [ 35.005244721895622, 32.810114786684771 ] } },
{ "type": "Feature", "properties": { "NAME_HE": "חריש", "NAME_ENG": null }, "geometry": { "type": "Point", "coordinates": [ 35.033347496484815, 32.471891464944378 ] } },
{ "type": "Feature", "properties": { "NAME_HE": "באר שבע צפון", "NAME_ENG": null }, "geometry": { "type": "Point", "coordinates": [ 34.792263494283148, 31.29862409332085 ] } },
{ "type": "Feature", "properties": { "NAME_HE": "חולות", "NAME_ENG": null }, "geometry": { "type": "Point", "coordinates": [ 34.741548051031607, 31.935940707904916 ] } },
{ "type": "Feature", "properties": { "NAME_HE": "מצליח דרום", "NAME_ENG": null }, "geometry": { "type": "Point", "coordinates": [ 34.913388533951867, 31.90214970863072 ] } },
{ "type": "Feature", "properties": { "NAME_HE": "תל יוסף", "NAME_ENG": null }, "geometry": { "type": "Point", "coordinates": [ 35.412196478378682, 32.545534185901019 ] } },
{ "type": "Feature", "properties": { "NAME_HE": "אלעד - רינתיה", "NAME_ENG": null }, "geometry": { "type": "Point", "coordinates": [ 34.93287257004252, 32.062719356932533 ] } },
{ "type": "Feature", "properties": { "NAME_HE": "ראש העין דרום", "NAME_ENG": null }, "geometry": { "type": "Point", "coordinates": [ 34.934587763332615, 32.104649975774734 ] } },
{ "type": "Feature", "properties": { "NAME_HE": "רמלה מערב", "NAME_ENG": null }, "geometry": { "type": "Point", "coordinates": [ 34.854959826586693, 31.939952056703635 ] } },
{ "type": "Feature", "properties": { "NAME_HE": "(ויתקין)", "NAME_ENG": null }, "geometry": { "type": "Point", "coordinates": [ 34.888336865616878, 32.386954690874774 ] } },
{ "type": "Feature", "properties": { "NAME_HE": "סביוני ים", "NAME_ENG": null }, "geometry": { "type": "Point", "coordinates": [ 35.088970508768085, 32.860215662470551 ] } },
{ "type": "Feature", "properties": { "NAME_HE": "אחיטוב", "NAME_ENG": null }, "geometry": { "type": "Point", "coordinates": [ 34.999079552139271, 32.387826650125554 ] } },
{ "type": "Feature", "properties": { "NAME_HE": "טייבה", "NAME_ENG": null }, "geometry": { "type": "Point", "coordinates": [ 34.994893506490307, 32.274040888311262 ] } },
{ "type": "Feature", "properties": { "NAME_HE": "רמלה דרום", "NAME_ENG": null }, "geometry": { "type": "Point", "coordinates": [ 34.859698697768849, 31.917209699367934 ] } },
{ "type": "Feature", "properties": { "NAME_HE": "מצליח צפון", "NAME_ENG": null }, "geometry": { "type": "Point", "coordinates": [ 34.913599534650359, 31.903670704822101 ] } },
{ "type": "Feature", "properties": { "NAME_HE": "יצחק שדה", "NAME_ENG": null }, "geometry": { "type": "Point", "coordinates": [ 34.789430984153661, 32.064391411264488 ] } },
{ "type": "Feature", "properties": { "NAME_HE": "גלילות צפון", "NAME_ENG": null }, "geometry": { "type": "Point", "coordinates": [ 34.809342968188162, 32.143095234960313 ] } },
{ "type": "Feature", "properties": { "NAME_HE": "גלילות דרום", "NAME_ENG": null }, "geometry": { "type": "Point", "coordinates": [ 34.809329964160597, 32.135190251297828 ] } },
{ "type": "Feature", "properties": { "NAME_HE": "מעיין שורק", "NAME_ENG": null }, "geometry": { "type": "Point", "coordinates": [ 34.776921960254015, 31.956899647825193 ] } },
{ "type": "Feature", "properties": { "NAME_HE": "עמיעד", "NAME_ENG": null }, "geometry": { "type": "Point", "coordinates": [ 35.553161268933643, 32.930640392275883 ] } },
{ "type": "Feature", "properties": { "NAME_HE": "ראש פינה", "NAME_ENG": null }, "geometry": { "type": "Point", "coordinates": [ 35.558610270527687, 32.970811313900455 ] } },
{ "type": "Feature", "properties": { "NAME_HE": "תעופה", "NAME_ENG": null }, "geometry": { "type": "Point", "coordinates": [ 34.907003605697952, 31.992947516583847 ] } },
{ "type": "Feature", "properties": { "NAME_HE": "לוד מרכז", "NAME_ENG": null }, "geometry": { "type": "Point", "coordinates": [ 34.896269617427123, 31.96063058976376 ] } },
{ "type": "Feature", "properties": { "NAME_HE": "יד מרדכי", "NAME_ENG": null }, "geometry": { "type": "Point", "coordinates": [ 34.571948345675935, 31.597109531094695 ] } },
{ "type": "Feature", "properties": { "NAME_HE": "נצרת דרום", "NAME_ENG": null }, "geometry": { "type": "Point", "coordinates": [ 35.321363785813212, 32.668085973569667 ] } },
{ "type": "Feature", "properties": { "NAME_HE": "כפר תבור", "NAME_ENG": null }, "geometry": { "type": "Point", "coordinates": [ 35.411261551226893, 32.694290892696145 ] } },
{ "type": "Feature", "properties": { "NAME_HE": "בני דרום", "NAME_ENG": null }, "geometry": { "type": "Point", "coordinates": [ 34.701056101910169, 31.8197079790454 ] } },
{ "type": "Feature", "properties": { "NAME_HE": "תמנע", "NAME_ENG": null }, "geometry": { "type": "Point", "coordinates": [ 35.013226475250512, 29.759283539205587 ] } },
{ "type": "Feature", "properties": { "NAME_HE": "אילת", "NAME_ENG": null }, "geometry": { "type": "Point", "coordinates": [ 34.95598143406967, 29.557160077646095 ] } },
{ "type": "Feature", "properties": { "NAME_HE": "מכר", "NAME_ENG": null }, "geometry": { "type": "Point", "coordinates": [ 35.124088432367053, 32.913712546692402 ] } },
{ "type": "Feature", "properties": { "NAME_HE": "גונן", "NAME_ENG": null }, "geometry": { "type": "Point", "coordinates": [ 35.571840294474995, 33.122824023105089 ] } },
{ "type": "Feature", "properties": { "NAME_HE": "שפיים", "NAME_ENG": null }, "geometry": { "type": "Point", "coordinates": [ 34.83930492083261, 32.215628068774016 ] } },
{ "type": "Feature", "properties": { "NAME_HE": "ערערה", "NAME_ENG": null }, "geometry": { "type": "Point", "coordinates": [ 35.029964701122758, 31.168258256752708 ] } },
{ "type": "Feature", "properties": { "NAME_HE": "ירוחם", "NAME_ENG": null }, "geometry": { "type": "Point", "coordinates": [ 34.941012823982064, 30.990083707579391 ] } },
{ "type": "Feature", "properties": { "NAME_HE": "חצבה", "NAME_ENG": null }, "geometry": { "type": "Point", "coordinates": [ 35.225509830552426, 30.796413970845641 ] } },
{ "type": "Feature", "properties": { "NAME_HE": "חדרה מזרח", "NAME_ENG": null }, "geometry": { "type": "Point", "coordinates": [ 34.950305717416519, 32.44334355221357 ] } },
{ "type": "Feature", "properties": { "NAME_HE": "חדרה צפון", "NAME_ENG": null }, "geometry": { "type": "Point", "coordinates": [ 34.921104801500832, 32.44725855377245 ] } },
{ "type": "Feature", "properties": { "NAME_HE": "צומת גולני", "NAME_ENG": null }, "geometry": { "type": "Point", "coordinates": [ 35.411788583709985, 32.770406743820466 ] } }
]
}
